[Satellite]
VERSION=1.1
NAME=IRIDIUM 76 [+]
NICKNAME=IRIDIUM 76 [+]
TLE1=1 25432U 98048B   18020.88219769  .00000090  00000-0  25207-4 0  9995
TLE2=2 25432  86.3988 164.4990 0002240  94.6591 265.4861 14.34214328 16792
